NORAD_CAT_ID,OBJECT_NAME,OBJECT_TYPE,EPOCH,MEAN_MOTION,ECCENTRICITY,INCLINATION,RA_OF_ASC_NODE,ARG_OF_PERICENTER,MEAN_ANOMALY,BSTAR,MEAN_MOTION_DOT,MEAN_MOTION_DDOT,TLE_LINE0,TLE_LINE1,TLE_LINE2,SEMIMAJOR_AXIS,PERIOD,APOGEE,PERIGEE,DECAYED
54099.0,STARLINK-5198,PAYLOAD,2024-07-10 08:32:55,15.0883561,0.0001295,53.2161,180.1025,90.1649,269.9492,3.5716e-05,2.81e-06,0.0,0 STARLINK-5198,1 54099U 22136BA  24192.35619935  .00000281  00000-0  35716-4 0  9997,2 54099  53.2161 180.1025 0001295  90.1649 269.9492 15.08835610 95305,6917.894,95.438,540.655,538.863,0.0
54099.0,STARLINK-5198,PAYLOAD,2024-07-10 22:51:23,15.08838797,0.0001285,53.216,177.4258,90.8837,269.2302,7.7151e-05,9.4e-06,0.0,0 STARLINK-5198,1 54099U 22136BA  24192.95235688  .00000940  00000-0  77151-4 0  9993,2 54099  53.2160 177.4258 0001285  90.8837 269.2302 15.08838797 95397,6917.884,95.438,540.638,538.86,0.0
54099.0,STARLINK-5198,PAYLOAD,2024-07-11 05:12:55,15.08844248,0.0001284,53.2158,176.2364,90.2302,269.8837,9.7276e-05,1.261e-05,0.0,0 STARLINK-5198,1 54099U 22136BA  24193.21731296  .00001261  00000-0  97276-4 0  9996,2 54099  53.2158 176.2364 0001284  90.2302 269.8837 15.08844248 95903,6917.867,95.437,540.621,538.844,0.0
54099.0,STARLINK-5198,PAYLOAD,2024-07-12 05:03:43,15.08841334,0.0001172,53.2151,171.7753,93.7928,266.3198,8.4656e-05,1.06e-05,0.0,0 STARLINK-5198,1 54099U 22136BA  24194.21091450  .00001060  00000-0  84656-4 0  9993,2 54099  53.2151 171.7753 0001172  93.7928 266.3198 15.08841334 96058,6917.876,95.437,540.552,538.931,0.0
54099.0,STARLINK-5198,PAYLOAD,2024-07-12 08:14:29,15.08841348,0.0001179,53.2152,171.1807,93.4721,266.6406,8.2404e-05,1.024e-05,0.0,0 STARLINK-5198,1 54099U 22136BA  24194.34339453  .00001024  00000-0  82404-4 0  9994,2 54099  53.2152 171.1807 0001179  93.4721 266.6406 15.08841348 95608,6917.876,95.437,540.557,538.926,0.0
54099.0,STARLINK-5198,PAYLOAD,2024-07-13 04:54:30,15.08838111,0.000135,53.2161,167.3154,96.7254,263.3891,-1.8236e-05,-5.78e-06,0.0,0 STARLINK-5198,1 54099U 22136BA  24195.20452010 -.00000578  00000-0 -18236-4 0  9992,2 54099  53.2161 167.3154 0001350  96.7254 263.3891 15.08838111 96201,6917.886,95.438,540.685,538.817,0.0
54099.0,STARLINK-5198,PAYLOAD,2024-07-13 08:05:16,15.08839399,0.0001287,53.2157,166.7201,95.2091,264.9048,-1.0474e-05,-4.55e-06,0.0,0 STARLINK-5198,1 54099U 22136BA  24195.33699890 -.00000455  00000-0 -10474-4 0  9995,2 54099  53.2157 166.7201 0001287  95.2091 264.9048 15.08839399 95753,6917.882,95.438,540.638,538.857,0.0
54099.0,STARLINK-5198,PAYLOAD,2024-07-13 22:23:44,15.08838365,0.0001248,53.2154,164.0437,94.4669,265.6466,4.826e-05,4.8e-06,0.0,0 STARLINK-5198,1 54099U 22136BA  24195.93315830  .00000480  00000-0  48260-4 0  9990,2 54099  53.2154 164.0437 0001248  94.4669 265.6466 15.08838365 95845,6917.885,95.438,540.614,538.887,0.0
54099.0,STARLINK-5198,PAYLOAD,2024-07-14 07:56:03,15.08842594,0.0001228,53.2156,162.2605,90.5157,269.5976,6.8921e-05,8.09e-06,0.0,0 STARLINK-5198,1 54099U 22136BA  24196.33059537  .00000809  00000-0  68921-4 0  9995,2 54099  53.2156 162.2605 0001228  90.5157 269.5976 15.08842594 96378,6917.872,95.437,540.587,538.888,0.0
54099.0,STARLINK-5198,PAYLOAD,2024-07-14 14:17:35,15.08850253,0.0001276,53.2163,161.0717,91.7065,268.4073,0.00012294,1.67e-05,0.0,0 STARLINK-5198,1 54099U 22136BA  24196.59554818  .00001670  00000-0  12294-3 0  9993,2 54099  53.2163 161.0717 0001276  91.7065 268.4073 15.08850253 95940,6917.849,95.437,540.597,538.831,0.0
54099.0,STARLINK-5198,PAYLOAD,2024-07-15 04:36:04,15.08835591,0.000125,53.2163,158.3954,93.6767,266.4368,4.3417e-05,4.03e-06,0.0,0 STARLINK-5198,1 54099U 22136BA  24197.19172233  .00000403  00000-0  43417-4 0  9992,2 54099  53.2163 158.3954 0001250  93.6767 266.4368 15.08835591 96500,6917.894,95.438,540.624,538.894,0.0
54099.0,STARLINK-5198,PAYLOAD,2024-07-15 22:05:19,15.08838054,0.0001337,53.2169,155.1257,98.5779,261.5365,4.155e-05,3.73e-06,0.0,0 STARLINK-5198,1 54099U 22136BA  24197.92036239  .00000373  00000-0  41550-4 0  9990,2 54099  53.2169 155.1257 0001337  98.5779 261.5365 15.08838054 96140,6917.886,95.438,540.676,538.826,0.0
54099.0,STARLINK-5198,PAYLOAD,2024-07-16 07:37:38,15.08840042,0.0001273,53.2161,153.3398,89.2142,270.8996,5.5687e-05,5.98e-06,0.0,0 STARLINK-5198,1 54099U 22136BA  24198.31780226  .00000598  00000-0  55687-4 0  9991,2 54099  53.2161 153.3398 0001273  89.2142 270.8996 15.08840042 96679,6917.88,95.438,540.626,538.865,0.0
54099.0,STARLINK-5198,PAYLOAD,2024-07-17 04:17:39,15.08835434,0.0001189,53.2162,149.4733,85.2579,274.8548,3.8079e-05,3.18e-06,0.0,0 STARLINK-5198,1 54099U 22136BA  24199.17892736  .00000318  00000-0  38079-4 0  9992,2 54099  53.2162 149.4733 0001189  85.2579 274.8548 15.08835434 96806,6917.894,95.438,540.582,538.937,0.0
54099.0,STARLINK-5198,PAYLOAD,2024-07-17 13:49:57,15.08840712,0.000119,53.2163,147.6891,85.3265,274.7863,8.6686e-05,1.092e-05,0.0,0 STARLINK-5198,1 54099U 22136BA  24199.57636444  .00001092  00000-0  86686-4 0  9995,2 54099  53.2163 147.6891 0001190  85.3265 274.7863 15.08840712 96395,6917.878,95.438,540.566,538.92,0.0
54099.0,STARLINK-5198,PAYLOAD,2024-07-18 05:43:49,15.08842323,0.0001273,53.217,144.7125,86.9304,273.1834,0.00014151,1.965e-05,0.0,0 STARLINK-5198,1 54099U 22136BA  24200.23876335  .00001965  00000-0  14151-3 0  9992,2 54099  53.2170 144.7125 0001273  86.9304 273.1834 15.08842323 96968,6917.873,95.437,540.619,538.858,0.0
54099.0,STARLINK-5198,PAYLOAD,2024-07-18 13:40:44,15.08851521,0.000132,53.2169,143.2286,86.076,274.0383,0.00015202,2.133e-05,0.0,0 STARLINK-5198,1 54099U 22136BA  24200.56995698  .00002133  00000-0  15202-3 0  9998,2 54099  53.2169 143.2286 0001320  86.0760 274.0383 15.08851521 96541,6917.845,95.437,540.623,538.797,0.0
54099.0,STARLINK-5198,PAYLOAD,2024-07-19 02:23:50,15.08833799,0.0001531,53.2174,140.8487,90.6335,269.4833,3.3284e-05,2.42e-06,0.0,0 STARLINK-5198,1 54099U 22136BA  24201.09989327  .00000242  00000-0  33284-4 0  9999,2 54099  53.2174 140.8487 0001531  90.6335 269.4833 15.08833799 97092,6917.899,95.438,540.823,538.705,0.0
54099.0,STARLINK-5198,PAYLOAD,2024-07-19 13:31:31,15.08844235,0.000148,53.2175,138.7668,109.0712,251.0441,9.057e-05,1.154e-05,0.0,0 STARLINK-5198,1 54099U 22136BA  24201.56356342  .00001154  00000-0  90570-4 0  9990,2 54099  53.2175 138.7668 0001480 109.0712 251.0441 15.08844235 96691,6917.867,95.437,540.756,538.709,0.0
54099.0,STARLINK-5198,PAYLOAD,2024-07-19 23:03:51,15.08838104,0.0001655,53.2175,136.9831,114.9346,245.1818,6.9799e-05,8.23e-06,0.0,0 STARLINK-5198,1 54099U 22136BA  24201.96100838  .00000823  00000-0  69799-4 0  9992,2 54099  53.2175 136.9831 0001655 114.9346 245.1818 15.08838104 96752,6917.886,95.438,540.896,538.606,0.0
54099.0,STARLINK-5198,PAYLOAD,2024-07-20 05:25:23,15.08845671,0.0001589,53.2174,135.7916,109.8908,250.2255,2.9709e-05,1.85e-06,0.0,0 STARLINK-5198,1 54099U 22136BA  24202.22596434  .00000185  00000-0  29709-4 0  9991,2 54099  53.2174 135.7916 0001589 109.8908 250.2255 15.08845671 96798,6917.863,95.437,540.827,538.629,0.0
54099.0,STARLINK-5198,PAYLOAD,2024-07-20 22:54:38,15.08836458,0.0001755,53.2175,132.5182,113.1707,246.947,0.00012033,1.627e-05,0.0,0 STARLINK-5198,1 54099U 22136BA  24202.95460883  .00001627  00000-0  12033-3 0  9992,2 54099  53.2175 132.5182 0001755 113.1707 246.9470 15.08836458 96906,6917.891,95.438,540.97,538.542,0.0
54099.0,STARLINK-5198,PAYLOAD,2024-07-21 02:05:24,15.08838006,0.0001469,53.2168,131.9281,109.8507,250.2644,6.9878e-05,8.24e-06,0.0,0 STARLINK-5198,1 54099U 22136BA  24203.08708979  .00000824  00000-0  69878-4 0  9996,2 54099  53.2168 131.9281 0001469 109.8507 250.2644 15.08838006 97399,6917.886,95.438,540.768,538.735,0.0
54099.0,STARLINK-5198,PAYLOAD,2024-07-21 22:45:25,15.08833621,0.0001422,53.2166,128.064,97.955,262.1604,7.6718e-05,9.33e-06,0.0,0 STARLINK-5198,1 54099U 22136BA  24203.94821517  .00000933  00000-0  76718-4 0  9997,2 54099  53.2166 128.0640 0001422  97.9550 262.1604 15.08833621 97056,6917.9,95.438,540.749,538.781,0.0
54099.0,STARLINK-5198,PAYLOAD,2024-07-22 01:56:12,15.08836972,0.000125,53.2165,127.4705,95.4801,264.6333,-1.3614e-07,-2.9e-06,0.0,0 STARLINK-5198,1 54099U 22136BA  24204.08069572 -.00000290  00000-0 -13614-6 0  9994,2 54099  53.2165 127.4705 0001250  95.4801 264.6333 15.08836972 97543,6917.89,95.438,540.619,538.89,0.0
54099.0,STARLINK-5198,PAYLOAD,2024-07-22 22:36:12,15.08862041,9.97e-05,53.2154,123.6021,67.3929,292.7169,-0.00015978,-2.831e-05,0.0,0 STARLINK-5198,1 54099U 22136BA  24204.94180660 -.00002831  00000-0 -15978-3 0  9996,2 54099  53.2154 123.6021 0000997  67.3929 292.7169 15.08862041 97204,6917.813,95.436,540.368,538.988,0.0
54099.0,STARLINK-5198,PAYLOAD,2024-07-23 01:46:58,15.08849649,0.0001113,53.2167,123.0076,82.8301,277.2818,9.2593e-05,1.186e-05,0.0,0 STARLINK-5198,1 54099U 22136BA  24205.07428642  .00001186  00000-0  92593-4 0  9995,2 54099  53.2167 123.0076 0001113  82.8301 277.2818 15.08849649 97690,6917.851,95.437,540.486,538.946,0.0
54099.0,STARLINK-5198,PAYLOAD,2024-07-23 11:19:16,15.08851158,0.0001055,53.2169,121.2236,82.3395,277.7717,0.00021953,3.209e-05,0.0,0 STARLINK-5198,1 54099U 22136BA  24205.47172176  .00003209  00000-0  21953-3 0  9996,2 54099  53.2169 121.2236 0001055  82.3395 277.7717 15.08851158 97289,6917.846,95.437,540.441,538.981,0.0
54099.0,STARLINK-5198,PAYLOAD,2024-07-23 22:27:01,15.08817753,9.98e-05,53.2167,119.1419,89.4847,270.626,-8.1047e-05,-1.577e-05,0.0,0 STARLINK-5198,1 54099U 22136BA  24205.93543367 -.00001577  00000-0 -81047-4 0  9990,2 54099  53.2167 119.1419 0000998  89.4847 270.6260 15.08817753 97357,6917.948,95.439,540.504,539.123,0.0
54099.0,STARLINK-5198,PAYLOAD,2024-07-24 03:13:09,15.08825531,0.0001217,53.2171,118.2532,101.7127,258.4002,-0.00014187,-2.544e-05,0.0,0 STARLINK-5198,1 54099U 22136BA  24206.13414179 -.00002544  00000-0 -14187-3 0  9996,2 54099  53.2171 118.2532 0001217 101.7127 258.4002 15.08825531 97858,6917.925,95.438,540.632,538.948,0.0
